NORAD_CAT_ID,OBJECT_NAME,OBJECT_TYPE,EPOCH,MEAN_MOTION,ECCENTRICITY,INCLINATION,RA_OF_ASC_NODE,ARG_OF_PERICENTER,MEAN_ANOMALY,BSTAR,MEAN_MOTION_DOT,MEAN_MOTION_DDOT,TLE_LINE0,TLE_LINE1,TLE_LINE2,SEMIMAJOR_AXIS,PERIOD,APOGEE,PERIGEE,DECAYED
49765.0,STARLINK-3227,PAYLOAD,2024-07-28 15:12:12,15.08846693,0.0001278,53.2169,263.5077,97.2208,262.8929,3.2661e-05,2.32e-06,0.0,0 STARLINK-3227,1 49765U 21115AT  24210.63348090  .00000232  00000-0  32661-4 0  9992,2 49765  53.2169 263.5077 0001278  97.2208 262.8929 15.08846693146756,6917.86,95.437,540.609,538.841,0.0
49765.0,STARLINK-3227,PAYLOAD,2024-07-29 10:16:52,15.08826777,0.0001109,53.2163,259.9409,88.7771,271.3348,-4.9381e-05,-1.073e-05,0.0,0 STARLINK-3227,1 49765U 21115AT  24211.42838059 -.00001073  00000-0 -49381-4 0  9992,2 49765  53.2163 259.9409 0001109  88.7771 271.3348 15.08826777147988,6917.921,95.438,540.553,539.019,0.0
49765.0,STARLINK-3227,PAYLOAD,2024-07-29 13:27:38,15.08826306,0.0001071,53.2163,259.3466,87.6499,272.4616,-6.1328e-05,-1.263e-05,0.0,0 STARLINK-3227,1 49765U 21115AT  24211.56086239 -.00001263  00000-0 -61328-4 0  9998,2 49765  53.2163 259.3466 0001071  87.6499 272.4616 15.08826306146895,6917.922,95.438,540.528,539.046,0.0
49765.0,STARLINK-3227,PAYLOAD,2024-07-29 19:49:11,15.08829404,0.000105,53.2157,258.1575,84.2272,275.884,-6.9037e-05,-1.386e-05,0.0,0 STARLINK-3227,1 49765U 21115AT  24211.82582315 -.00001386  00000-0 -69037-4 0  9994,2 49765  53.2157 258.1575 0001050  84.2272 275.8840 15.08829404146938,6917.913,95.438,540.504,539.051,0.0
49765.0,STARLINK-3227,PAYLOAD,2024-07-30 11:43:02,15.08839381,0.0001163,53.2162,255.1832,81.7888,278.3236,7.4034e-05,8.91e-06,0.0,0 STARLINK-3227,1 49765U 21115AT  24212.48821839  .00000891  00000-0  74034-4 0  9995,2 49765  53.2162 255.1832 0001163  81.7888 278.3236 15.08839381148144,6917.882,95.438,540.552,538.943,0.0
49765.0,STARLINK-3227,PAYLOAD,2024-07-30 19:39:57,15.08846798,0.0001175,53.2161,253.6964,82.3983,277.7143,0.00013221,1.817e-05,0.0,0 STARLINK-3227,1 49765U 21115AT  24212.81941311  .00001817  00000-0  13221-3 0  9999,2 49765  53.2161 253.6964 0001175  82.3983 277.7143 15.08846798147080,6917.86,95.437,540.537,538.912,0.0
49765.0,STARLINK-3227,PAYLOAD,2024-07-31 09:58:25,15.08857091,0.0001185,53.2151,251.0198,75.3259,284.7864,0.0005205,8.009e-05,0.0,0 STARLINK-3227,1 49765U 21115AT  24213.41557121  .00008009  00000-0  52050-3 0  9991,2 49765  53.2151 251.0198 0001185  75.3259 284.7864 15.08857091147175,6917.828,95.436,540.513,538.873,0.0
49765.0,STARLINK-3227,PAYLOAD,2024-07-31 19:30:44,15.08849614,0.0001274,53.2148,249.2352,78.1675,281.946,0.00031484,4.728e-05,0.0,0 STARLINK-3227,1 49765U 21115AT  24213.81301280  .00004728  00000-0  31484-3 0  9990,2 49765  53.2148 249.2352 0001274  78.1675 281.9460 15.08849614147234,6917.851,95.437,540.597,538.835,0.0
49765.0,STARLINK-3227,PAYLOAD,2024-08-01 11:24:35,15.08845835,0.0001326,53.2157,246.2619,76.7363,283.3777,2.1504e-05,5.4e-07,0.0,0 STARLINK-3227,1 49765U 21115AT  24214.47541116  .00000054  00000-0  21504-4 0  9998,2 49765  53.2157 246.2619 0001326  76.7363 283.3777 15.08845835148445,6917.863,95.437,540.645,538.81,0.0
49765.0,STARLINK-3227,PAYLOAD,2024-08-02 09:39:59,15.0885059,0.0001413,53.2166,242.0972,78.989,281.1261,-4.9768e-05,-1.08e-05,0.0,0 STARLINK-3227,1 49765U 21115AT  24215.40277072 -.00001080  00000-0 -49768-4 0  9993,2 49765  53.2166 242.0972 0001413  78.9890 281.1261 15.08850590147477,6917.848,95.437,540.691,538.736,0.0
49765.0,STARLINK-3227,PAYLOAD,2024-08-03 01:33:50,15.08840009,0.000133,53.2156,239.1248,82.1831,277.9312,7.1717e-05,8.54e-06,0.0,0 STARLINK-3227,1 49765U 21115AT  24216.06517212  .00000854  00000-0  71717-4 0  9994,2 49765  53.2156 239.1248 0001330  82.1831 277.9312 15.08840009148687,6917.88,95.438,540.665,538.825,0.0
49765.0,STARLINK-3227,PAYLOAD,2024-08-03 07:55:23,15.08841239,0.0001262,53.2152,237.9353,85.6913,274.4223,8.3388e-05,1.04e-05,0.0,0 STARLINK-3227,1 49765U 21115AT  24216.33013081  .00001040  00000-0  83388-4 0  9994,2 49765  53.2152 237.9353 0001262  85.6913 274.4223 15.08841239147610,6917.877,95.437,540.615,538.869,0.0
49765.0,STARLINK-3227,PAYLOAD,2024-08-03 19:03:05,15.08839529,0.0001236,53.2155,235.8532,86.6663,273.447,5.9718e-05,6.63e-06,0.0,0 STARLINK-3227,1 49765U 21115AT  24216.79381233  .00000663  00000-0  59718-4 0  9991,2 49765  53.2155 235.8532 0001236  86.6663 273.4470 15.08839529147682,6917.882,95.438,540.602,538.892,0.0
49765.0,STARLINK-3227,PAYLOAD,2024-08-04 04:35:24,15.08838388,0.0001307,53.2154,234.069,88.9699,271.1443,4.4446e-05,4.2e-06,0.0,0 STARLINK-3227,1 49765U 21115AT  24217.19125422  .00000420  00000-0  44446-4 0  9995,2 49765  53.2154 234.0690 0001307  88.9699 271.1443 15.08838388148857,6917.885,95.438,540.654,538.846,0.0
49765.0,STARLINK-3227,PAYLOAD,2024-08-04 07:46:10,15.08840217,0.0001316,53.2158,233.4747,89.0551,271.0592,5.3262e-05,5.6e-06,0.0,0 STARLINK-3227,1 49765U 21115AT  24217.32373278  .00000560  00000-0  53262-4 0  9995,2 49765  53.2158 233.4747 0001316  89.0551 271.0592 15.08840217147763,6917.88,95.438,540.655,538.834,0.0
49765.0,STARLINK-3227,PAYLOAD,2024-08-05 06:01:34,15.08843098,0.0001337,53.2156,229.3108,90.5895,269.5251,7.8638e-05,9.64e-06,0.0,0 STARLINK-3227,1 49765U 21115AT  24218.25109064  .00000964  00000-0  78638-4 0  9990,2 49765  53.2156 229.3108 0001337  90.5895 269.5251 15.08843098149011,6917.871,95.437,540.661,538.811,0.0
49765.0,STARLINK-3227,PAYLOAD,2024-08-05 07:36:57,15.08843991,0.0001322,53.2154,229.0142,85.7647,274.3496,8.2464e-05,1.025e-05,0.0,0 STARLINK-3227,1 49765U 21115AT  24218.31732947  .00001025  00000-0  82464-4 0  9990,2 49765  53.2154 229.0142 0001322  85.7647 274.3496 15.08843991147913,6917.868,95.437,540.648,538.819,0.0
49765.0,STARLINK-3227,PAYLOAD,2024-08-06 04:16:58,15.0883218,0.000122,53.216,225.1474,73.3921,286.7205,4.0707e-06,-2.23e-06,0.0,0 STARLINK-3227,1 49765U 21115AT  24219.17845300 -.00000223  00000-0  40707-5 0  9998,2 49765  53.2160 225.1474 0001220  73.3921 286.7205 15.08832180149151,6917.904,95.438,540.613,538.925,0.0
49765.0,STARLINK-3227,PAYLOAD,2024-08-06 10:38:30,15.08844793,0.0001378,53.2168,223.9541,84.5747,275.5402,0.00010413,1.37e-05,0.0,0 STARLINK-3227,1 49765U 21115AT  24219.44340328  .00001370  00000-0  10413-3 0  9990,2 49765  53.2168 223.9541 0001378  84.5747 275.5402 15.08844793148083,6917.866,95.437,540.684,538.777,0.0
49765.0,STARLINK-3227,PAYLOAD,2024-08-06 17:00:03,15.08832308,0.00013,53.216,222.7684,70.4237,289.6895,-0.00010399,-1.942e-05,0.0,0 STARLINK-3227,1 49765U 21115AT  24219.70837732 -.00001942  00000-0 -10399-3 0  9999,2 49765  53.2160 222.7684 0001300  70.4237 289.6895 15.08832308148129,6917.904,95.438,540.668,538.87,0.0
49765.0,STARLINK-3227,PAYLOAD,2024-08-07 05:43:09,15.08827974,0.0001276,53.2155,220.3906,93.1003,267.0135,-8.2636e-05,-1.602e-05,0.0,0 STARLINK-3227,1 49765U 21115AT  24220.23830265 -.00001602  00000-0 -82636-4 0  9990,2 49765  53.2155 220.3906 0001276  93.1003 267.0135 15.08827974149311,6917.917,95.438,540.665,538.899,0.0
49765.0,STARLINK-3227,PAYLOAD,2024-08-08 10:20:05,15.0883153,0.0001295,53.2159,215.0379,96.1512,263.9628,0.00012227,1.658e-05,0.0,0 STARLINK-3227,1 49765U 21115AT  24221.43061853  .00001658  00000-0  12227-3 0  9999,2 49765  53.2159 215.0379 0001295  96.1512 263.9628 15.08831530148380,6917.906,95.438,540.667,538.875,0.0
49765.0,STARLINK-3227,PAYLOAD,2024-08-08 23:03:10,15.08835434,0.0001256,53.2159,212.6593,96.8047,263.3088,0.00018224,2.613e-05,0.0,0 STARLINK-3227,1 49765U 21115AT  24221.96053756  .00002613  00000-0  18224-3 0  9995,2 49765  53.2159 212.6593 0001256  96.8047 263.3088 15.08835434148468,6917.894,95.438,540.628,538.89,0.0
49765.0,STARLINK-3227,PAYLOAD,2024-08-09 05:24:42,15.08842438,0.0001262,53.2156,211.4695,92.0135,268.1002,0.0002016,2.922e-05,0.0,0 STARLINK-3227,1 49765U 21115AT  24222.22549513  .00002922  00000-0  20160-3 0  9991,2 49765  53.2156 211.4695 0001262  92.0135 268.1002 15.08842438149617,6917.873,95.437,540.611,538.865,0.0
49765.0,STARLINK-3227,PAYLOAD,2024-08-09 16:32:25,15.08840356,0.0001422,53.2169,209.3876,81.6268,278.4885,0.00013566,1.872e-05,0.0,0 STARLINK-3227,1 49765U 21115AT  24222.68918058  .00001872  00000-0  13566-3 0  9990,2 49765  53.2169 209.3876 0001422  81.6268 278.4885 15.08840356149684,6917.879,95.438,540.728,538.761,0.0
49765.0,STARLINK-3227,PAYLOAD,2024-08-10 03:40:07,15.08838844,0.0001389,53.2159,207.3066,85.6229,274.4922,6.3741e-05,7.27e-06,0.0,0 STARLINK-3227,1 49765U 21115AT  24223.15286364  .00000727  00000-0  63741-4 0  9990,2 49765  53.2159 207.3066 0001389  85.6229 274.4922 15.08838844148647,6917.884,95.438,540.71,538.788,0.0
49765.0,STARLINK-3227,PAYLOAD,2024-08-11 08:17:02,15.0885494,0.0001439,53.2154,201.9496,106.8655,253.2495,0.0001664,2.362e-05,0.0,0 STARLINK-3227,1 49765U 21115AT  24224.34517165  .00002362  00000-0  16640-3 0  9990,2 49765  53.2154 201.9496 0001439 106.8655 253.2495 15.08854940149932,6917.835,95.437,540.695,538.704,0.0
49765.0,STARLINK-3227,PAYLOAD,2024-08-11 16:13:58,15.08843086,0.0001679,53.2172,200.457,108.1748,251.9427,5.3403e-05,5.62e-06,0.0,0 STARLINK-3227,1 49765U 21115AT  24224.67637635  .00000562  00000-0  53403-4 0  9990,2 49765  53.2172 200.4570 0001679 108.1748 251.9427 15.08843086149987,6917.871,95.437,540.897,538.574,0.0
49765.0,STARLINK-3227,PAYLOAD,2024-08-12 08:07:50,15.0885267,0.0001511,53.2159,197.4894,95.4332,264.6832,0.00029475,4.408e-05,0.0,0 STARLINK-3227,1 49765U 21115AT  24225.33877398  .00004408  00000-0  29475-3 0  9990,2 49765  53.2159 197.4894 0001511  95.4332 264.6832 15.08852670148976,6917.842,95.437,540.752,538.661,0.0
49765.0,STARLINK-3227,PAYLOAD,2024-08-12 22:26:18,15.0885556,0.0001517,53.2161,194.8164,89.168,270.9486,0.00020176,2.926e-05,0.0,0 STARLINK-3227,1 49765U 21115AT  24225.93493212  .00002926  00000-0  20176-3 0  9997,2 49765  53.2161 194.8164 0001517  89.1680 270.9486 15.08855560149069,6917.833,95.437,540.747,538.648,0.0
